NORAD_CAT_ID,OBJECT_NAME,OBJECT_TYPE,EPOCH,MEAN_MOTION,ECCENTRICITY,INCLINATION,RA_OF_ASC_NODE,ARG_OF_PERICENTER,MEAN_ANOMALY,BSTAR,MEAN_MOTION_DOT,MEAN_MOTION_DDOT,TLE_LINE0,TLE_LINE1,TLE_LINE2,SEMIMAJOR_AXIS,PERIOD,APOGEE,PERIGEE,DECAYED
53900.0,STARLINK-5045,PAYLOAD,2023-07-11 17:01:16,15.08836244,0.000101,53.2179,7.149,88.0816,272.0292,2.6475e-05,1.34e-06,0.0,0 STARLINK-5045,1 53900U 22119Q   23192.70921388  .00000134  00000-0  26475-4 0  9993,2 53900  53.2179   7.1490 0001010  88.0816 272.0292 15.08836244 44531,6917.892,95.438,540.456,539.058,0.0
53900.0,STARLINK-5045,PAYLOAD,2023-07-11 23:22:47,15.08846839,0.000101,53.218,5.9586,86.7643,273.3465,7.7847e-05,9.52e-06,0.0,0 STARLINK-5045,1 53900U 22119Q   23192.97416533  .00000952  00000-0  77847-4 0  9990,2 53900  53.2180   5.9586 0001010  86.7643 273.3465 15.08846839 44579,6917.859,95.437,540.423,539.026,0.0
53900.0,STARLINK-5045,PAYLOAD,2023-07-12 04:08:57,15.08842515,9.31e-05,53.218,5.0652,93.582,266.5278,4.5923e-05,4.43e-06,0.0,0 STARLINK-5045,1 53900U 22119Q   23193.17288871  .00000443  00000-0  45923-4 0  9990,2 53900  53.2180   5.0652 0000931  93.5820 266.5278 15.08842515 44605,6917.873,95.437,540.382,539.094,0.0
53900.0,STARLINK-5045,PAYLOAD,2023-07-13 16:42:50,15.0883757,0.0001,53.2178,358.231,103.8137,256.2967,-7.3699e-06,-4.05e-06,0.0,0 STARLINK-5045,1 53900U 22119Q   23194.69641854 -.00000405  00000-0 -73699-5 0  9994,2 53900  53.2178 358.2310 0001000 103.8137 256.2967 15.08837570 44831,6917.888,95.438,540.445,539.061,0.0
53900.0,STARLINK-5045,PAYLOAD,2023-07-14 16:33:37,15.08843209,0.0001124,53.2185,353.7714,105.5193,254.5924,9.8025e-05,1.273e-05,0.0,0 STARLINK-5045,1 53900U 22119Q   23195.69001368  .00001273  00000-0  98025-4 0  9996,2 53900  53.2185 353.7714 0001124 105.5193 254.5924 15.08843209 44981,6917.871,95.437,540.513,538.958,0.0
53900.0,STARLINK-5045,PAYLOAD,2023-07-15 10:02:52,15.08835507,0.0001314,53.2187,350.4996,90.6608,269.4535,8.528e-05,1.069e-05,0.0,0 STARLINK-5045,1 53900U 22119Q   23196.41866112  .00001069  00000-0  85280-4 0  9995,2 53900  53.2187 350.4996 0001314  90.6608 269.4535 15.08835507 45093,6917.894,95.438,540.668,538.85,0.0
53900.0,STARLINK-5045,PAYLOAD,2023-07-16 17:50:34,15.08849626,0.0001024,53.2176,344.5495,93.145,266.9659,3.4175e-05,2.56e-06,0.0,0 STARLINK-5045,1 53900U 22119Q   23197.74345485  .00000256  00000-0  34175-4 0  9991,2 53900  53.2176 344.5495 0001024  93.1450 266.9659 15.08849626 45298,6917.851,95.437,540.424,539.008,0.0
53900.0,STARLINK-5045,PAYLOAD,2023-07-17 09:44:26,15.08829226,0.0001203,53.2174,341.5756,97.4416,262.6713,0.00029373,4.389e-05,0.0,0 STARLINK-5045,1 53900U 22119Q   23198.40586223  .00004389  00000-0  29373-3 0  9996,2 53900  53.2174 341.5756 0001203  97.4416 262.6713 15.08829226 45390,6917.913,95.438,540.611,538.946,0.0
53900.0,STARLINK-5045,PAYLOAD,2023-07-17 16:05:58,15.08845145,0.0001106,53.2177,340.3852,102.894,257.2176,0.00024089,3.549e-05,0.0,0 STARLINK-5045,1 53900U 22119Q   23198.67081260  .00003549  00000-0  24089-3 0  9992,2 53900  53.2177 340.3852 0001106 102.8940 257.2176 15.08845145 45438,6917.865,95.437,540.495,538.965,0.0
53900.0,STARLINK-5045,PAYLOAD,2023-07-18 14:21:22,15.08845312,0.0001234,53.2173,336.2227,104.399,255.7139,8.1188e-05,1.005e-05,0.0,0 STARLINK-5045,1 53900U 22119Q   23199.59817307  .00001005  00000-0  81188-4 0  9992,2 53900  53.2173 336.2227 0001234 104.3990 255.7139 15.08845312 45571,6917.864,95.437,540.583,538.875,0.0
53900.0,STARLINK-5045,PAYLOAD,2023-07-19 09:26:01,15.08832656,0.000166,53.216,332.6512,120.9979,239.1176,-7.1806e-05,-1.43e-05,0.0,0 STARLINK-5045,1 53900U 22119Q   23200.39306772 -.00001430  00000-0 -71806-4 0  9992,2 53900  53.2160 332.6512 0001660 120.9979 239.1176 15.08832656 45695,6917.903,95.438,540.916,538.619,0.0
53900.0,STARLINK-5045,PAYLOAD,2023-07-20 17:13:42,15.0884821,0.000121,53.2178,326.7061,109.236,250.8763,0.00010319,1.355e-05,0.0,0 STARLINK-5045,1 53900U 22119Q   23201.71785703  .00001355  00000-0  10319-3 0  9999,2 53900  53.2178 326.7061 0001210 109.2360 250.8763 15.08848210 45899,6917.855,95.437,540.557,538.883,0.0
53900.0,STARLINK-5045,PAYLOAD,2023-07-24 07:04:33,15.08843844,0.0001332,53.2157,310.6522,77.2654,282.8487,5.5561e-05,5.97e-06,0.0,0 STARLINK-5045,1 53900U 22119Q   23205.29482690  .00000597  00000-0  55561-4 0  9991,2 53900  53.2157 310.6522 0001332  77.2654 282.8487 15.08843844 46858,6917.869,95.437,540.655,538.812,0.0
53900.0,STARLINK-5045,PAYLOAD,2023-07-25 11:41:29,15.08836307,0.0001032,53.216,305.2973,85.9179,274.1931,8.1004e-05,1.002e-05,0.0,0 STARLINK-5045,1 53900U 22119Q   23206.48715063  .00001002  00000-0  81004-4 0  9999,2 53900  53.2160 305.2973 0001032  85.9179 274.1931 15.08836307 47032,6917.892,95.438,540.471,539.043,0.0
53900.0,STARLINK-5045,PAYLOAD,2023-07-26 08:21:30,15.0883915,0.0001104,53.2166,301.4313,114.7841,245.3266,6.6769e-05,7.75e-06,0.0,0 STARLINK-5045,1 53900U 22119Q   23207.34826840  .00000775  00000-0  66769-4 0  9998,2 53900  53.2166 301.4313 0001104 114.7841 245.3266 15.08839150 47165,6917.883,95.438,540.512,538.984,0.0
53900.0,STARLINK-5045,PAYLOAD,2023-07-26 16:18:25,15.08848805,0.0001235,53.2164,299.9477,63.8802,296.2317,0.00012557,1.712e-05,0.0,0 STARLINK-5045,1 53900U 22119Q   23207.67946191  .00001712  00000-0  12557-3 0  9993,2 53900  53.2164 299.9477 0001235  63.8802 296.2317 15.08848805 46798,6917.853,95.437,540.573,538.864,0.0
53900.0,STARLINK-5045,PAYLOAD,2023-07-27 06:36:54,15.08836136,0.0001307,53.2179,297.274,79.8929,280.221,0.00012155,1.647e-05,0.0,0 STARLINK-5045,1 53900U 22119Q   23208.27562937  .00001647  00000-0  12155-3 0  9993,2 53900  53.2179 297.2740 0001307  79.8929 280.2210 15.08836136 46884,6917.892,95.438,540.661,538.853,0.0
53900.0,STARLINK-5045,PAYLOAD,2023-07-27 17:44:36,15.08837381,0.0001671,53.2175,295.1886,71.7617,288.3557,7.5226e-05,9.09e-06,0.0,0 STARLINK-5045,1 53900U 22119Q   23208.73931062  .00000909  00000-0  75226-4 0  9992,2 53900  53.2175 295.1886 0001671  71.7617 288.3557 15.08837381 47378,6917.888,95.438,540.909,538.597,0.0
53900.0,STARLINK-5045,PAYLOAD,2023-07-27 22:30:47,15.08828587,0.0002761,53.216,294.2912,82.3428,277.7878,-0.00013537,-2.442e-05,0.0,0 STARLINK-5045,1 53900U 22119Q   23208.93804475 -.00002442  00000-0 -13537-3 0  9993,2 53900  53.2160 294.2912 0002761  82.3428 277.7878 15.08828587 46983,6917.915,95.438,541.69,537.87,0.0
53900.0,STARLINK-5045,PAYLOAD,2023-07-28 04:52:19,15.08826544,9.27e-05,53.2174,293.1069,102.2712,257.8384,-0.00011388,-2.099e-05,0.0,0 STARLINK-5045,1 53900U 22119Q   23209.20300242 -.00002099  00000-0 -11388-3 0  9997,2 53900  53.2174 293.1069 0000927 102.2712 257.8384 15.08826544 47443,6917.922,95.438,540.428,539.145,0.0
53900.0,STARLINK-5045,PAYLOAD,2023-07-28 16:00:00,15.08835408,0.0001269,53.2159,291.0237,93.9961,266.1176,-1.4767e-05,-5.23e-06,0.0,0 STARLINK-5045,1 53900U 22119Q   23209.66667661 -.00000523  00000-0 -14767-4 0  9993,2 53900  53.2159 291.0237 0001269  93.9961 266.1176 15.08835408 47094,6917.894,95.438,540.637,538.882,0.0
53900.0,STARLINK-5045,PAYLOAD,2023-07-28 22:21:33,15.08842123,0.0001062,53.2163,289.8359,94.5451,265.5662,-3.2519e-05,-8.05e-06,0.0,0 STARLINK-5045,1 53900U 22119Q   23209.93163195 -.00000805  00000-0 -32519-4 0  9994,2 53900  53.2163 289.8359 0001062  94.5451 265.5662 15.08842123 47131,6917.874,95.437,540.474,539.004,0.0
53900.0,STARLINK-5045,PAYLOAD,2023-07-29 17:26:08,15.0887168,0.0001271,53.2157,286.2671,103.8385,256.2749,-0.00046588,-7.701e-05,0.0,0 STARLINK-5045,1 53900U 22119Q   23210.72649079 -.00007701  00000-0 -46588-3 0  9995,2 53900  53.2157 286.2671 0001271 103.8385 256.2749 15.08871680 47250,6917.784,95.436,540.528,538.769,0.0
53900.0,STARLINK-5045,PAYLOAD,2023-07-30 10:55:25,15.08838643,0.0001367,53.216,282.996,85.6981,274.4167,0.00011613,1.561e-05,0.0,0 STARLINK-5045,1 53900U 22119Q   23211.45515625  .00001561  00000-0  11613-3 0  9992,2 53900  53.2160 282.9960 0001367  85.6981 274.4167 15.08838643 47363,6917.885,95.438,540.695,538.804,0.0
53900.0,STARLINK-5045,PAYLOAD,2023-07-31 21:53:54,15.08848016,0.0001354,53.2146,276.4537,85.1028,275.0118,0.00035188,5.318e-05,0.0,0 STARLINK-5045,1 53900U 22119Q   23212.91243366  .00005318  00000-0  35188-3 0  9991,2 53900  53.2146 276.4537 0001354  85.1028 275.0118 15.08848016 47580,6917.856,95.437,540.658,538.784,0.0
53900.0,STARLINK-5045,PAYLOAD,2023-08-01 10:36:59,15.08845646,0.000137,53.2153,274.0755,82.9361,277.1787,0.00011962,1.617e-05,0.0,0 STARLINK-5045,1 53900U 22119Q   23213.44235310  .00001617  00000-0  11962-3 0  9992,2 53900  53.2153 274.0755 0001370  82.9361 277.1787 15.08845646 47667,6917.863,95.437,540.676,538.78,0.0
53900.0,STARLINK-5045,PAYLOAD,2023-08-02 10:27:46,15.08840249,0.0001329,53.215,269.6144,89.6339,270.4805,6.2618e-05,7.09e-06,0.0,0 STARLINK-5045,1 53900U 22119Q   23214.43595572  .00000709  00000-0  62618-4 0  9997,2 53900  53.2150 269.6144 0001329  89.6339 270.4805 15.08840249 47817,6917.88,95.438,540.664,538.825,0.0
53900.0,STARLINK-5045,PAYLOAD,2023-08-03 15:04:42,15.08845381,0.0001223,53.2151,264.2612,89.153,270.9602,0.00013358,1.839e-05,0.0,0 STARLINK-5045,1 53900U 22119Q   23215.62827332  .00001839  00000-0  13358-3 0  9992,2 53900  53.2151 264.2612 0001223  89.1530 270.9602 15.08845381 47991,6917.864,95.437,540.575,538.883,0.0
53900.0,STARLINK-5045,PAYLOAD,2023-08-04 02:12:25,15.08833948,0.0001354,53.215,262.1806,76.1345,283.9797,-7.5308e-07,-3e-06,0.0,0 STARLINK-5045,1 53900U 22119Q   23216.09196119 -.00000300  00000-0 -75308-6 0  9996,2 53900  53.2150 262.1806 0001354  76.1345 283.9797 15.08833948 48061,6917.899,95.438,540.701,538.827,0.0
53900.0,STARLINK-5045,PAYLOAD,2023-08-05 10:00:07,15.08847589,0.0001153,53.2146,256.2324,92.2457,267.8667,0.00018414,2.645e-05,0.0,0 STARLINK-5045,1 53900U 22119Q   23217.41675492  .00002645  00000-0  18414-3 0  9993,2 53900  53.2146 256.2324 0001153  92.2457 267.8667 15.08847589 48260,6917.857,95.437,540.52,538.925,0.0
